{
  "type": "FeatureCollection",
  "features": [
    {
      "type": "Feature",
      "properties": {
        "norad_id": 37562,
        "name": "IRIDIUM 33 DEB",
        "group": "iridium-33-debris",
        "lat": 40.66084745829052,
        "lon": -137.3922997383822,
        "alt_km": 683.5753856141018,
        "timestamp": "2025-12-07T20:38:14.449504+00:00",
        "meta_object_name": "IRIDIUM 33 DEB",
        "meta_object_id": "1997-051XX",
        "meta_epoch": "2025-12-05T22:38:16.769760",
        "meta_mean_motion": 14.56376175,
        "meta_eccentricity": 0.00266622,
        "meta_inclination": 86.3751,
        "meta_ra_of_asc_node": 46.5643,
        "meta_arg_of_pericenter": 129.1222,
        "meta_mean_anomaly": 47.463,
        "meta_ephemeris_type": 0,
        "meta_classification_type": "U",
        "meta_norad_cat_id": 37562,
        "meta_element_set_no": 999,
        "meta_rev_at_epoch": 86229,
        "meta_bstar": 0.0018491974,
        "meta_mean_motion_dot": 8.263e-05,
        "meta_mean_motion_ddot": 0,
        "tle_line1": "1 37562U 97051XX  25339.94324965  .00008263  00000+0  18492-2 0  9993",
        "tle_line2": "2 37562  86.3751  46.5643 0026662 129.1222  47.4630 14.56376175862290"
      },
      "geometry": {
        "type": "Point",
        "coordinates": [
          -137.3922997383822,
          40.66084745829052
        ]
      }
    },
    {
      "type": "Feature",
      "properties": {
        "norad_id": 37565,
        "name": "IRIDIUM 33 DEB",
        "group": "iridium-33-debris",
        "lat": 6.104517036059762,
        "lon": 12.095525437349504,
        "alt_km": 723.2649153972543,
        "timestamp": "2025-12-07T20:38:14.449514+00:00",
        "meta_object_name": "IRIDIUM 33 DEB",
        "meta_object_id": "1997-051YA",
        "meta_epoch": "2025-12-06T08:12:33.505344",
        "meta_mean_motion": 14.51477956,
        "meta_eccentricity": 0.00152608,
        "meta_inclination": 86.3496,
        "meta_ra_of_asc_node": 12.3652,
        "meta_arg_of_pericenter": 102.6626,
        "meta_mean_anomaly": 257.6286,
        "meta_ephemeris_type": 0,
        "meta_classification_type": "U",
        "meta_norad_cat_id": 37565,
        "meta_element_set_no": 999,
        "meta_rev_at_epoch": 65744,
        "meta_bstar": 0.0010565174,
        "meta_mean_motion_dot": 4.246e-05,
        "meta_mean_motion_ddot": 0,
        "tle_line1": "1 37565U 97051YA  25340.34205446  .00004246  00000+0  10565-2 0  9994",
        "tle_line2": "2 37565  86.3496  12.3652 0015260 102.6626 257.6286 14.51477956657441"
      },
      "geometry": {
        "type": "Point",
        "coordinates": [
          12.095525437349504,
          6.104517036059762
        ]
      }
    },
    {
      "type": "Feature",
      "properties": {
        "norad_id": 38017,
        "name": "IRIDIUM 33 DEB",
        "group": "iridium-33-debris",
        "lat": 38.94586505333344,
        "lon": -14.617735851546097,
        "alt_km": 666.1504737795822,
        "timestamp": "2025-12-07T20:38:14.449524+00:00",
        "meta_object_name": "IRIDIUM 33 DEB",
        "meta_object_id": "1997-051YD",
        "meta_epoch": "2025-12-01T06:29:11.103360",
        "meta_mean_motion": 14.48304289,
        "meta_eccentricity": 0.009214,
        "meta_inclination": 86.3439,
        "meta_ra_of_asc_node": 171.2047,
        "meta_arg_of_pericenter": 141.8586,
        "meta_mean_anomaly": 218.9187,
        "meta_ephemeris_type": 0,
        "meta_classification_type": "U",
        "meta_norad_cat_id": 38017,
        "meta_element_set_no": 999,
        "meta_rev_at_epoch": 61236,
        "meta_bstar": 0.0066574,
        "meta_mean_motion_dot": 0.00026341,
        "meta_mean_motion_ddot": 0,
        "tle_line1": "1 38017U 97051YD  25335.27026740  .00026341  00000+0  66574-2 0  9992",
        "tle_line2": "2 38017  86.3439 171.2047 0092140 141.8586 218.9187 14.48304289612362"
      },
      "geometry": {
        "type": "Point",
        "coordinates": [
          -14.617735851546097,
          38.94586505333344
        ]
      }
    },
    {
      "type": "Feature",
      "properties": {
        "norad_id": 38022,
        "name": "IRIDIUM 33 DEB",
        "group": "iridium-33-debris",
        "lat": 56.32407887301335,
        "lon": 24.20032630533216,
        "alt_km": 716.0823582484418,
        "timestamp": "2025-12-07T20:38:14.449534+00:00",
        "meta_object_name": "IRIDIUM 33 DEB",
        "meta_object_id": "1997-051YJ",
        "meta_epoch": "2025-12-03T09:43:50.752992",
        "meta_mean_motion": 14.41155819,
        "meta_eccentricity": 0.00470517,
        "meta_inclination": 86.2701,
        "meta_ra_of_asc_node": 20.531,
        "meta_arg_of_pericenter": 80.0356,
        "meta_mean_anomaly": 280.615,
        "meta_ephemeris_type": 0,
        "meta_classification_type": "U",
        "meta_norad_cat_id": 38022,
        "meta_element_set_no": 999,
        "meta_rev_at_epoch": 69059,
        "meta_bstar": 0.0013840286,
        "meta_mean_motion_dot": 4.54e-05,
        "meta_mean_motion_ddot": 0,
        "tle_line1": "1 38022U 97051YJ  25337.40544853  .00004540  00000+0  13840-2 0  9990",
        "tle_line2": "2 38022  86.2701  20.5310 0047051  80.0356 280.6150 14.41155819690591"
      },
      "geometry": {
        "type": "Point",
        "coordinates": [
          24.20032630533216,
          56.32407887301335
        ]
      }
    },
    {
      "type": "Feature",
      "properties": {
        "norad_id": 38028,
        "name": "IRIDIUM 33 DEB",
        "group": "iridium-33-debris",
        "lat": 66.17775102506907,
        "lon": 174.02837101422065,
        "alt_km": 712.4582762497066,
        "timestamp": "2025-12-07T20:38:14.449544+00:00",
        "meta_object_name": "IRIDIUM 33 DEB",
        "meta_object_id": "1997-051YQ",
        "meta_epoch": "2025-12-06T19:12:19.598112",
        "meta_mean_motion": 14.46166745,
        "meta_eccentricity": 0.00294822,
        "meta_inclination": 86.3276,
        "meta_ra_of_asc_node": 2.8528,
        "meta_arg_of_pericenter": 139.7765,
        "meta_mean_anomaly": 220.5627,
        "meta_ephemeris_type": 0,
        "meta_classification_type": "U",
        "meta_norad_cat_id": 38028,
        "meta_element_set_no": 999,
        "meta_rev_at_epoch": 65409,
        "meta_bstar": 0.00054862399,
        "meta_mean_motion_dot": 1.991e-05,
        "meta_mean_motion_ddot": 0,
        "tle_line1": "1 38028U 97051YQ  25340.80022683  .00001991  00000+0  54862-3 0  9993",
        "tle_line2": "2 38028  86.3276   2.8528 0029482 139.7765 220.5627 14.46166745654095"
      },
      "geometry": {
        "type": "Point",
        "coordinates": [
          174.02837101422065,
          66.17775102506907
        ]
      }
    },
    {
      "type": "Feature",
      "properties": {
        "norad_id": 38228,
        "name": "IRIDIUM 33 DEB",
        "group": "iridium-33-debris",
        "lat": 19.317532750861073,
        "lon": 51.845874055728196,
        "alt_km": 846.5040134365108,
        "timestamp": "2025-12-07T20:38:14.449553+00:00",
        "meta_object_name": "IRIDIUM 33 DEB",
        "meta_object_id": "1997-051ZC",
        "meta_epoch": "2025-12-05T11:24:42.525216",
        "meta_mean_motion": 14.27249684,
        "meta_eccentricity": 0.0063511,
        "meta_inclination": 86.2953,
        "meta_ra_of_asc_node": 51.5576,
        "meta_arg_of_pericenter": 213.0073,
        "meta_mean_anomaly": 162.7695,
        "meta_ephemeris_type": 0,
        "meta_classification_type": "U",
        "meta_norad_cat_id": 38228,
        "meta_element_set_no": 999,
        "meta_rev_at_epoch": 84678,
        "meta_bstar": 0.00063038661,
        "meta_mean_motion_dot": 1.592e-05,
        "meta_mean_motion_ddot": 0,
        "tle_line1": "1 38228U 97051ZC  25339.47549219  .00001592  00000+0  63039-3 0  9998",
        "tle_line2": "2 38228  86.2953  51.5576 0063511 213.0073 162.7695 14.27249684846785"
      },
      "geometry": {
        "type": "Point",
        "coordinates": [
          51.845874055728196,
          19.317532750861073
        ]
      }
    },
    {
      "type": "Feature",
      "properties": {
        "norad_id": 38241,
        "name": "IRIDIUM 33 DEB",
        "group": "iridium-33-debris",
        "lat": 2.6019363507981828,
        "lon": 172.58486216115452,
        "alt_km": 713.1530426801,
        "timestamp": "2025-12-07T20:38:14.449564+00:00",
        "meta_object_name": "IRIDIUM 33 DEB",
        "meta_object_id": "1997-051ZR",
        "meta_epoch": "2025-12-05T18:18:10.298016",
        "meta_mean_motion": 14.54799988,
        "meta_eccentricity": 0.00056722,
        "meta_inclination": 86.3224,
        "meta_ra_of_asc_node": 353.6772,
        "meta_arg_of_pericenter": 87.2865,
        "meta_mean_anomaly": 272.8992,
        "meta_ephemeris_type": 0,
        "meta_classification_type": "U",
        "meta_norad_cat_id": 38241,
        "meta_element_set_no": 999,
        "meta_rev_at_epoch": 60099,
        "meta_bstar": 0.0014749391,
        "meta_mean_motion_dot": 6.345e-05,
        "meta_mean_motion_ddot": 0,
        "tle_line1": "1 38241U 97051ZR  25339.76261919  .00006345  00000+0  14749-2 0  9997",
        "tle_line2": "2 38241  86.3224 353.6772 0005672  87.2865 272.8992 14.54799988600991"
      },
      "geometry": {
        "type": "Point",
        "coordinates": [
          172.58486216115452,
          2.6019363507981828
        ]
      }
    }
  ]
}